{"timestamp_utc":"2026-04-24T09:55:54Z","norad_id":"68426","satellite_name":"TRANSPORTER-16 OBJECT L","line1":"1 68426U 26067L   26113.09522479  .00009158  00000+0  44676-3 0  9990","line2":"2 68426  97.4513  72.3993 0003016 126.5885 233.5627 15.18520751  3584"}
{"timestamp_utc":"2026-04-25T03:48:43Z","norad_id":"68426","satellite_name":"TRANSPORTER-16 OBJECT L","line1":"1 68426U 26067L   26114.28133571  .00009276  00000+0  45213-3 0  9992","line2":"2 68426  97.4511  73.5679 0003179 124.6839 235.4695 15.18543964  3761"}
{"timestamp_utc":"2026-04-26T04:19:28Z","norad_id":"68426","satellite_name":"TRANSPORTER-16 OBJECT L","line1":"1 68426U 26067L   26115.59921328  .00011523  00000+0  56019-3 0  9996","line2":"2 68426  97.4508  74.8667 0003290 123.3759 236.7791 15.18575071  3966"}
{"timestamp_utc":"2026-04-27T04:26:42Z","norad_id":"68426","satellite_name":"TRANSPORTER-16 OBJECT L","line1":"1 68426U 26067L   26115.59921328  .00011523  00000+0  56019-3 0  9996","line2":"2 68426  97.4508  74.8667 0003290 123.3759 236.7791 15.18575071  3966"}
{"timestamp_utc":"2026-04-28T04:30:02Z","norad_id":"68426","satellite_name":"TRANSPORTER-16 OBJECT L","line1":"1 68426U 26067L   26117.83953537  .00014850  00000+0  71936-3 0  9993","line2":"2 68426  97.4508  77.0743 0003362 121.1669 238.9895 15.18639632  4304"}
{"timestamp_utc":"2026-04-29T04:25:12Z","norad_id":"68426","satellite_name":"TRANSPORTER-16 OBJECT L","line1":"1 68426U 26067L   26118.82788449  .00012481  00000+0  60490-3 0  9992","line2":"2 68426  97.4512  78.0486 0003463 119.5377 240.6203 15.18663350  4456"}
{"timestamp_utc":"2026-04-30T04:28:17Z","norad_id":"68426","satellite_name":"TRANSPORTER-16 OBJECT L","line1":"1 68426U 26067L   26119.81621802  .00012412  00000+0  60116-3 0  9990","line2":"2 68426  97.4516  79.0228 0003583 117.7594 242.4004 15.18687348  4608"}
{"timestamp_utc":"2026-05-01T04:43:30Z","norad_id":"68426","satellite_name":"TRANSPORTER-16 OBJECT L","line1":"1 68426U 26067L   26120.93630998  .00014231  00000+0  68802-3 0  9992","line2":"2 68426  97.4519  80.1271 0003682 116.3813 243.7799 15.18717300  4776"}
{"timestamp_utc":"2026-05-02T04:14:52Z","norad_id":"68426","satellite_name":"TRANSPORTER-16 OBJECT L","line1":"1 68426U 26067L   26121.85872071  .00012779  00000+0  61782-3 0  9999","line2":"2 68426  97.4520  81.0367 0003713 115.5584 244.6035 15.18742423  4918"}
{"timestamp_utc":"2026-05-03T04:36:28Z","norad_id":"68426","satellite_name":"TRANSPORTER-16 OBJECT L","line1":"1 68426U 26067L   26122.38580534  .00012598  00000+0  60889-3 0  9994","line2":"2 68426  97.4521  81.5564 0003698 115.1411 245.0207 15.18757108  4990"}
{"timestamp_utc":"2026-05-04T04:36:19Z","norad_id":"68426","satellite_name":"TRANSPORTER-16 OBJECT L","line1":"1 68426U 26067L   26123.83526362  .00013712  00000+0  66155-3 0  9995","line2":"2 68426  97.4526  82.9858 0003781 113.3371 246.8261 15.18796799  5218"}
{"timestamp_utc":"2026-05-05T04:13:06Z","norad_id":"68426","satellite_name":"TRANSPORTER-16 OBJECT L","line1":"1 68426U 26067L   26124.29644753  .00011543  00000+0  55742-3 0  9991","line2":"2 68426  97.4527  83.4406 0003784 112.5114 247.6521 15.18806107  5283"}
{"timestamp_utc":"2026-05-06T04:30:05Z","norad_id":"68426","satellite_name":"TRANSPORTER-16 OBJECT L","line1":"1 68426U 26067L   26125.61409418  .00013378  00000+0  64468-3 0  9998","line2":"2 68426  97.4528  84.7396 0003897 109.9908 250.1747 15.18844326  5488"}
